GSAT-17                 
1 42815U 17040B   26163.14072301 -.00000242  00000+0  00000+0 0  9995
2 42815   0.0552  91.9332 0001861 211.7115 100.9966  1.00271051 32738
INTELSAT 35E (IS-35E)   
1 42818U 17041A   26164.25606506 -.00000226  00000+0  00000+0 0  9994
2 42818   0.0137 332.8446 0001543 104.9975 241.4339  1.00269859 32779
COSMOS 2520             
1 42907U 17046A   26164.27175181  .00000149  00000+0  00000+0 0  9993
2 42907   0.0472  85.7799 0001048  50.6118 268.0339  1.00272999 32359
TDRS 13                 
1 42915U 17047A   26164.26057175 -.00000090  00000+0  00000+0 0  9990
2 42915   3.4507   2.6311 0014435 106.2019 235.1150  1.00271444 32309
QZS-3 (MICHIBIKI-3)     
1 42917U 17048A   26164.28802312  .00000000  00000+0  00000+0 0  9996
2 42917   0.0245 173.1712 0002410 278.7610  40.3236  1.00264910 32226
AMAZONAS 5              
1 42934U 17053A   26163.46661809 -.00000268  00000+0  00000+0 0  9991
2 42934   0.0336 321.8224 0001959  91.6577 314.3138  1.00288918 31999
ASIASAT 9               
1 42942U 17057A   26164.28706979 -.00000347  00000+0  00000+0 0  9991
2 42942   0.0058 354.1341 0002502  80.0635  52.8506  1.00271079 31825
INTELSAT 37E (IS-37E)   
1 42950U 17059A   26164.25927174 -.00000128  00000+0  00000+0 0  9998
2 42950   0.0156  52.7171 0002355  47.5153 236.6924  1.00272737 32025
BSAT-4A                 
1 42951U 17059B   26164.28464311 -.00000338  00000+0  00000+0 0  9994
2 42951   0.0414  23.0102 0003919  43.9940  46.9010  1.00270095 31762
QZS-4 (MICHIBIKI-4)     
1 42965U 17062A   26163.36175737 -.00000323  00000+0  00000+0 0  9996
2 42965  40.1109 343.5445 0745239 271.6622 273.0963  1.00251829 31751
SES-11 (ECHOSTAR 105)   
1 42967U 17063A   26163.88543396 -.00000077  00000+0  00000+0 0  9992
2 42967   0.0241 316.0093 0002354 124.3158  34.7095  1.00278620 31689
KOREASAT 5A             
1 42984U 17067A   26163.92881630 -.00000344  00000+0  00000+0 0  9993
2 42984   0.0108 334.6715 0000425 135.2664 238.8274  1.00268675 31480
ALCOMSAT 1              
1 43039U 17078A   26164.25797174 -.00000174  00000+0  00000+0 0  9994
2 43039   0.0464  77.0342 0002141   0.2142 252.4131  1.00271382 31258
SBIRS GEO-3 (USA 282)   
1 43162U 18009A   26164.01743601  .00000140  00000+0  00000+0 0  9998
2 43162   2.1809  11.8934 0001845  64.7112  31.6151  1.00271669 30803
AL YAH 3                
1 43174U 18012A   26164.25892507 -.00000144  00000+0  00000+0 0  9996
2 43174   1.5413  83.1523 0003886 358.5457 252.9900  1.00270295 30803
SES-14                  
1 43175U 18012B   26163.68305681 -.00000264  00000+0  00000+0 0  9998
2 43175   0.0183  23.5512 0000900  47.9925  27.8622  1.00267076  6986
GOES 17                 
1 43226U 18022A   26164.24514728 -.00000170  00000+0  00000+0 0  9999
2 43226   0.9269  85.7804 0000427  30.2263 144.3165  1.00270379 30383
HISPASAT 30W-6          
1 43228U 18023A   26163.68658536 -.00000202  00000+0  00000+0 0  9991
2 43228   0.0443  40.2253 0005884  26.7418  51.2166  1.00269570 30364
SUPERBIRD-B3            
1 43271U 18033A   26164.22369440 -.00000080  00000+0  00000+0 0  9998
2 43271   0.0154 342.4734 0001170 130.2578  31.3352  1.00270346 30026
HYLAS 4                 
1 43272U 18033B   26163.68580536 -.00000219  00000+0  00000+0 0  9993
2 43272   0.0138  47.1194 0001049  28.6557  38.6413  1.00267909 30029
IRNSS-1I                
1 43286U 18035A   26163.84582741  .00000073  00000+0  00000+0 0  9995
2 43286  28.7444  74.2643 0017867 181.7241   4.5323  1.00271122 30032
USA 283                 
1 43339U 18036A   26161.43655905  .00000000  00000+0  00000+0 0  9991
2 43339   0.0149 323.1993 0000130 214.6638  12.1871  1.00269147 25223
COSMOS 2526             
1 43432U 18037A   26163.78917388 -.00000330  00000+0  00000+0 0  9999
2 43432   0.0301  77.1235 0000420  89.9053 146.2573  1.00272487 29917
APSTAR-6C               
1 43450U 18041A   26163.79038722 -.00000304  00000+0  00000+0 0  9992
2 43450   0.0234 348.2035 0001061 355.9429 335.5263  1.00270855 29766
BANGABANDHUSAT-1        
1 43463U 18044A   26164.28646312 -.00000350  00000+0  00000+0 0  9995
2 43463   0.0187  39.9949 0001574  39.8646  43.9744  1.00271731 29671
SES-12                  
1 43488U 18049A   26164.06780046 -.00000256  00000+0  00000+0 0  9991
2 43488   0.0184  22.7527 0000887 257.4637 100.5911  1.00268542 29370
FENGYUN 2H              
1 43491U 18050A   26164.06476711 -.00000119  00000+0  00000+0 0  9996
2 43491   3.0192  79.1271 0001899 133.1484 151.8574  1.00270096 29395
BEIDOU-2 IGSO-7         
1 43539U 18057A   26163.92794963  .00000023  00000+0  00000+0 0  9995
2 43539  55.1944 163.0954 0104897 237.8995 304.6030  1.00252210 29082
TELSTAR 19V             
1 43562U 18059A   26163.96527675 -.00000266  00000+0  00000+0 0  9991
2 43562   0.0198 159.4401 0002462 316.6152  69.7286  1.00269751 29103
TELKOM 4 (MERAH PUTIH)  
1 43587U 18064A   26164.28429645 -.00000332  00000+0  00000+0 0  9992
2 43587   0.0162  28.2851 0001226  83.2299   0.4343  1.00271183 28847
TELSTAR 18V             
1 43611U 18069A   26163.79116722 -.00000280  00000+0  00000+0 0  9991
2 43611   0.0164 324.1646 0001557 116.5611 243.2062  1.00268592 28599
