OBJECT_NAME,OBJECT_ID,EPOCH,MEAN_MOTION,ECCENTRICITY,INCLINATION,RA_OF_ASC_NODE,ARG_OF_PERICENTER,MEAN_ANOMALY,EPHEMERIS_TYPE,CLASSIFICATION_TYPE,NORAD_CAT_ID,ELEMENT_SET_NO,REV_AT_EPOCH,BSTAR,MEAN_MOTION_DOT,MEAN_MOTION_DDOT
GSAT-17,2017-040B,2026-06-12T03:22:38.468064,1.00271051,.00018618,0.0552,91.9332,211.7115,100.9966,0,U,42815,999,3273,0,-.242E-5,0
INTELSAT 35E (IS-35E),2017-041A,2026-06-13T06:08:44.021184,1.00269859,.00015436,0.0137,332.8446,104.9975,241.4339,0,U,42818,999,3277,0,-.226E-5,0
COSMOS 2520,2017-046A,2026-06-13T06:31:19.356384,1.00272999,.00010482,0.0472,85.7799,50.6118,268.0339,0,U,42907,999,3235,0,.149E-5,0
TDRS 13,2017-047A,2026-06-13T06:15:13.399200,1.00271444,.00144358,3.4507,2.6311,106.2019,235.1150,0,U,42915,999,3230,0,-.9E-6,0
QZS-3 (MICHIBIKI-3),2017-048A,2026-06-13T06:54:45.197568,1.00264910,.00024103,0.0245,173.1712,278.7610,40.3236,0,U,42917,999,3222,0,0,0
AMAZONAS 5,2017-053A,2026-06-12T11:11:55.802976,1.00288918,.00019599,0.0336,321.8224,91.6577,314.3138,0,U,42934,999,3199,0,-.268E-5,0
ASIASAT 9,2017-057A,2026-06-13T06:53:22.829856,1.00271079,.00025022,0.0058,354.1341,80.0635,52.8506,0,U,42942,999,3182,0,-.347E-5,0
INTELSAT 37E (IS-37E),2017-059A,2026-06-13T06:13:21.078336,1.00272737,.00023553,0.0156,52.7171,47.5153,236.6924,0,U,42950,999,3202,0,-.128E-5,0
BSAT-4A,2017-059B,2026-06-13T06:49:53.164704,1.00270095,.0003919,0.0414,23.0102,43.9940,46.9010,0,U,42951,999,3176,0,-.338E-5,0
QZS-4 (MICHIBIKI-4),2017-062A,2026-06-12T08:40:55.836768,1.00251829,.07452399,40.1109,343.5445,271.6622,273.0963,0,U,42965,999,3175,0,-.323E-5,0
SES-11 (ECHOSTAR 105),2017-063A,2026-06-12T21:15:01.494144,1.00278620,.00023544,0.0241,316.0093,124.3158,34.7095,0,U,42967,999,3168,0,-.77E-6,0
KOREASAT 5A,2017-067A,2026-06-12T22:17:29.728320,1.00268675,.00004257,0.0108,334.6715,135.2664,238.8274,0,U,42984,999,3148,0,-.344E-5,0
ALCOMSAT 1,2017-078A,2026-06-13T06:11:28.758336,1.00271382,.00021415,0.0464,77.0342,0.2142,252.4131,0,U,43039,999,3125,0,-.174E-5,0
SBIRS GEO-3 (USA 282),2018-009A,2026-06-13T00:25:06.471264,1.00271669,.00018453,2.1809,11.8934,64.7112,31.6151,0,U,43162,999,3080,0,.14E-5,0
AL YAH 3,2018-012A,2026-06-13T06:12:51.126048,1.00270295,.00038869,1.5413,83.1523,358.5457,252.9900,0,U,43174,999,3080,0,-.144E-5,0
SES-14,2018-012B,2026-06-12T16:23:36.108384,1.00267076,.00009004,0.0183,23.5512,47.9925,27.8622,0,U,43175,999,698,0,-.264E-5,0
GOES 17,2018-022A,2026-06-13T05:53:00.724992,1.00270379,.00004279,0.9269,85.7804,30.2263,144.3165,0,U,43226,999,3038,0,-.17E-5,0
HISPASAT 30W-6,2018-023A,2026-06-12T16:28:40.975104,1.00269570,.00058845,0.0443,40.2253,26.7418,51.2166,0,U,43228,999,3036,0,-.202E-5,0
SUPERBIRD-B3,2018-033A,2026-06-13T05:22:07.196160,1.00270346,.00011708,0.0154,342.4734,130.2578,31.3352,0,U,43271,999,3002,0,-.8E-6,0
HYLAS 4,2018-033B,2026-06-12T16:27:33.583104,1.00267909,.00010495,0.0138,47.1194,28.6557,38.6413,0,U,43272,999,3002,0,-.219E-5,0
IRNSS-1I,2018-035A,2026-06-12T20:17:59.488224,1.00271122,.00178673,28.7444,74.2643,181.7241,4.5323,0,U,43286,999,3003,0,.73E-6,0
USA 283,2018-036A,2026-06-10T10:28:38.701920,1.00269147,.000013,0.0149,323.1993,214.6638,12.1871,0,U,43339,999,2522,0,0,0
COSMOS 2526,2018-037A,2026-06-12T18:56:24.623232,1.00272487,.000042,0.0301,77.1235,89.9053,146.2573,0,U,43432,999,2991,0,-.33E-5,0
APSTAR-6C,2018-041A,2026-06-12T18:58:09.455808,1.00270855,.0001061,0.0234,348.2035,355.9429,335.5263,0,U,43450,999,2976,0,-.304E-5,0
BANGABANDHUSAT-1,2018-044A,2026-06-13T06:52:30.413568,1.00271731,.00015742,0.0187,39.9949,39.8646,43.9744,0,U,43463,999,2967,0,-.35E-5,0
SES-12,2018-049A,2026-06-13T01:37:37.959744,1.00268542,.00008879,0.0184,22.7527,257.4637,100.5911,0,U,43488,999,2937,0,-.256E-5,0
FENGYUN 2H,2018-050A,2026-06-13T01:33:15.878304,1.00270096,.00018994,3.0192,79.1271,133.1484,151.8574,0,U,43491,999,2939,0,-.119E-5,0
BEIDOU-2 IGSO-7,2018-057A,2026-06-12T22:16:14.848032,1.00252210,.01048978,55.1944,163.0954,237.8995,304.6030,0,U,43539,999,2908,0,.23E-6,0
TELSTAR 19V,2018-059A,2026-06-12T23:09:59.911200,1.00269751,.0002462,0.0198,159.4401,316.6152,69.7286,0,U,43562,999,2910,0,-.266E-5,0
TELKOM 4 (MERAH PUTIH),2018-064A,2026-06-13T06:49:23.213280,1.00271183,.00012267,0.0162,28.2851,83.2299,0.4343,0,U,43587,999,2884,0,-.332E-5,0
TELSTAR 18V,2018-069A,2026-06-12T18:59:16.847808,1.00268592,.0001557,0.0164,324.1646,116.5611,243.2062,0,U,43611,999,2859,0,-.28E-5,0
